{"type":"FeatureCollection","features":[{"type":"Feature","properties":{"type":"tee","hole":1},"geometry":{"type":"Point","coordinates":[-3.608768,40.469268]}},{"type":"Feature","properties":{"type":"green","hole":1},"geometry":{"type":"Polygon","coordinates":[[[-3.605407,40.470316],[-3.605379,40.47031],[-3.605325,40.47031],[-3.605291,40.470318],[-3.605266,40.470334],[-3.605249,40.470354],[-3.605234,40.470384],[-3.605231,40.47042],[-3.605238,40.470449],[-3.605259,40.470482],[-3.605285,40.470499],[-3.605326,40.470505],[-3.605366,40.470504],[-3.605416,40.4705],[-3.605443,40.470488],[-3.605466,40.470479],[-3.605482,40.470472],[-3.605488,40.470455],[-3.605491,40.470437],[-3.605483,40.470418],[-3.605468,40.470389],[-3.605457,40.470368],[-3.60544,40.470344],[-3.605427,40.470328],[-3.605407,40.470316]]]}},{"type":"Feature","properties":{"type":"tee","hole":2},"geometry":{"type":"Point","coordinates":[-3.60522,40.469491]}},{"type":"Feature","properties":{"type":"green","hole":2},"geometry":{"type":"Polygon","coordinates":[[[-3.600467,40.467466],[-3.600411,40.467463],[-3.600341,40.467484],[-3.600323,40.467506],[-3.600312,40.46753],[-3.600317,40.467557],[-3.600325,40.467591],[-3.60034,40.467618],[-3.600358,40.467641],[-3.600394,40.467654],[-3.600424,40.467656],[-3.600463,40.467654],[-3.600497,40.467652],[-3.600528,40.467646],[-3.600555,40.467635],[-3.600562,40.467607],[-3.600557,40.467575],[-3.600554,40.467548],[-3.600541,40.467525],[-3.600524,40.467506],[-3.600504,40.467487],[-3.600488,40.467476],[-3.600467,40.467466]]]}},{"type":"Feature","properties":{"type":"tee","hole":3},"geometry":{"type":"Point","coordinates":[-3.599471,40.467387]}},{"type":"Feature","properties":{"type":"green","hole":3},"geometry":{"type":"Polygon","coordinates":[[[-3.598149,40.464845],[-3.598112,40.464847],[-3.598072,40.46486],[-3.598045,40.464885],[-3.598031,40.464906],[-3.598025,40.464928],[-3.598026,40.464955],[-3.598034,40.464976],[-3.598075,40.464998],[-3.598112,40.465015],[-3.59814,40.465034],[-3.598187,40.465054],[-3.598227,40.465063],[-3.598264,40.465053],[-3.598296,40.465037],[-3.598315,40.465015],[-3.598327,40.464989],[-3.598331,40.464962],[-3.598322,40.464934],[-3.598305,40.464908],[-3.598278,40.464891],[-3.598233,40.464872],[-3.598189,40.464852],[-3.598149,40.464845]]]}},{"type":"Feature","properties":{"type":"tee","hole":4},"geometry":{"type":"Point","coordinates":[-3.597608,40.464763]}},{"type":"Feature","properties":{"type":"green","hole":4},"geometry":{"type":"Polygon","coordinates":[[[-3.597438,40.462054],[-3.597396,40.462062],[-3.597353,40.46208],[-3.597319,40.462119],[-3.597313,40.462159],[-3.597338,40.462231],[-3.597347,40.462261],[-3.597383,40.462281],[-3.59741,40.462294],[-3.597466,40.462268],[-3.597493,40.462245],[-3.597527,40.462228],[-3.597554,40.462202],[-3.597563,40.462172],[-3.597555,40.462143],[-3.597535,40.46212],[-3.59751,40.462094],[-3.597474,40.462067],[-3.597438,40.462054]]]}},{"type":"Feature","properties":{"type":"tee","hole":5},"geometry":{"type":"Point","coordinates":[-3.597515,40.461797]}},{"type":"Feature","properties":{"type":"green","hole":5},"geometry":{"type":"Polygon","coordinates":[[[-3.595868,40.462059],[-3.595842,40.462059],[-3.595814,40.462069],[-3.595801,40.462078],[-3.595784,40.462103],[-3.595759,40.462118],[-3.595733,40.462123],[-3.595705,40.462124],[-3.59567,40.46212],[-3.595636,40.462132],[-3.595621,40.462144],[-3.595613,40.462165],[-3.595623,40.462195],[-3.595647,40.462215],[-3.595679,40.462226],[-3.595725,40.462233],[-3.595752,40.46223],[-3.595785,40.462224],[-3.595813,40.462209],[-3.595839,40.462197],[-3.595859,40.462178],[-3.595879,40.462158],[-3.595893,40.462139],[-3.595904,40.462119],[-3.5959,40.462093],[-3.595892,40.462073],[-3.595868,40.462059]]]}},{"type":"Feature","properties":{"type":"tee","hole":6},"geometry":{"type":"Point","coordinates":[-3.595314,40.462233]}},{"type":"Feature","properties":{"type":"green","hole":6},"geometry":{"type":"Polygon","coordinates":[[[-3.597355,40.465132],[-3.59732,40.465124],[-3.597288,40.465116],[-3.597238,40.465116],[-3.597206,40.465144],[-3.597193,40.465162],[-3.59719,40.465211],[-3.597206,40.465273],[-3.597222,40.465316],[-3.597262,40.465358],[-3.597299,40.465376],[-3.597341,40.465382],[-3.597389,40.465374],[-3.597413,40.465348],[-3.597437,40.46531],[-3.597445,40.465285],[-3.59744,40.465227],[-3.597416,40.465184],[-3.597395,40.46516],[-3.597355,40.465132]]]}},{"type":"Feature","properties":{"type":"tee","hole":7},"geometry":{"type":"Point","coordinates":[-3.597614,40.465966]}},{"type":"Feature","properties":{"type":"green","hole":7},"geometry":{"type":"Polygon","coordinates":[[[-3.601587,40.468462],[-3.601531,40.468457],[-3.601498,40.468466],[-3.601478,40.468486],[-3.601479,40.468527],[-3.601496,40.468553],[-3.60152,40.468595],[-3.601537,40.468617],[-3.601569,40.468638],[-3.601605,40.468645],[-3.601648,40.468639],[-3.601697,40.468629],[-3.601736,40.468601],[-3.601754,40.468575],[-3.601753,40.468536],[-3.601742,40.468504],[-3.601717,40.468489],[-3.601688,40.468478],[-3.601659,40.468475],[-3.601626,40.46847],[-3.601587,40.468462]]]}},{"type":"Feature","properties":{"type":"tee","hole":8},"geometry":{"type":"Point","coordinates":[-3.602633,40.468851]}},{"type":"Feature","properties":{"type":"green","hole":8},"geometry":{"type":"Polygon","coordinates":[[[-3.604358,40.469516],[-3.604313,40.469518],[-3.604284,40.469529],[-3.604253,40.469551],[-3.604239,40.469573],[-3.604232,40.469599],[-3.604238,40.469623],[-3.604247,40.469641],[-3.604266,40.469654],[-3.604297,40.469662],[-3.604335,40.46967],[-3.604372,40.469676],[-3.604381,40.469684],[-3.604394,40.469698],[-3.604417,40.469714],[-3.604449,40.469725],[-3.604473,40.469725],[-3.604521,40.469722],[-3.604546,40.469706],[-3.604559,40.469694],[-3.604573,40.469672],[-3.604574,40.469656],[-3.604574,40.469639],[-3.60457,40.469625],[-3.604564,40.469611],[-3.604556,40.469598],[-3.604544,40.469594],[-3.604515,40.46959],[-3.604483,40.469581],[-3.604464,40.46957],[-3.604445,40.469556],[-3.604432,40.469542],[-3.604416,40.469527],[-3.604394,40.469519],[-3.604358,40.469516]]]}},{"type":"Feature","properties":{"type":"tee","hole":9},"geometry":{"type":"Point","coordinates":[-3.605137,40.470009]}},{"type":"Feature","properties":{"type":"green","hole":9},"geometry":{"type":"Polygon","coordinates":[[[-3.608744,40.468615],[-3.608719,40.468599],[-3.608677,40.468596],[-3.608635,40.468621],[-3.608603,40.46865],[-3.608591,40.468674],[-3.608582,40.46871],[-3.608582,40.468755],[-3.608616,40.468787],[-3.608649,40.468801],[-3.608696,40.468809],[-3.608746,40.468808],[-3.60879,40.468782],[-3.608813,40.468753],[-3.608817,40.468722],[-3.608811,40.468693],[-3.608786,40.46867],[-3.608761,40.46865],[-3.608744,40.468615]]]}},{"type":"Feature","properties":{"type":"tee","hole":10},"geometry":{"type":"Point","coordinates":[-3.609107,40.46745]}},{"type":"Feature","properties":{"type":"green","hole":10},"geometry":{"type":"Polygon","coordinates":[[[-3.604549,40.467713],[-3.604502,40.467713],[-3.604467,40.467724],[-3.60444,40.467747],[-3.604407,40.467778],[-3.604366,40.467809],[-3.60435,40.467825],[-3.604337,40.467854],[-3.604344,40.467882],[-3.604363,40.467903],[-3.604403,40.467918],[-3.604437,40.467929],[-3.604473,40.467939],[-3.604504,40.467946],[-3.604528,40.467938],[-3.604541,40.467929],[-3.604555,40.467915],[-3.604561,40.467895],[-3.604559,40.467876],[-3.604561,40.467856],[-3.604572,40.467833],[-3.604593,40.467809],[-3.604611,40.467782],[-3.604611,40.467756],[-3.604596,40.467736],[-3.604575,40.467722],[-3.604549,40.467713]]]}},{"type":"Feature","properties":{"type":"tee","hole":11},"geometry":{"type":"Point","coordinates":[-3.603746,40.467479]}},{"type":"Feature","properties":{"type":"green","hole":11},"geometry":{"type":"Polygon","coordinates":[[[-3.605736,40.46699],[-3.6057,40.46699],[-3.605667,40.466996],[-3.605646,40.467007],[-3.605634,40.467023],[-3.60563,40.467032],[-3.605628,40.467047],[-3.605634,40.467066],[-3.605653,40.467081],[-3.605672,40.467097],[-3.605693,40.467118],[-3.605708,40.467138],[-3.605727,40.467154],[-3.605761,40.467168],[-3.605786,40.467174],[-3.605817,40.46717],[-3.605844,40.467159],[-3.605871,40.467143],[-3.605885,40.467127],[-3.605895,40.467111],[-3.605899,40.4671],[-3.605908,40.467091],[-3.605921,40.467077],[-3.605929,40.467057],[-3.605927,40.467039],[-3.605919,40.467024],[-3.605903,40.467009],[-3.605882,40.466999],[-3.605854,40.466995],[-3.60583,40.466998],[-3.605797,40.466999],[-3.605771,40.466998],[-3.605754,40.466995],[-3.605736,40.46699]]]}},{"type":"Feature","properties":{"type":"tee","hole":12},"geometry":{"type":"Point","coordinates":[-3.605449,40.466617]}},{"type":"Feature","properties":{"type":"green","hole":12},"geometry":{"type":"Polygon","coordinates":[[[-3.600678,40.465859],[-3.600651,40.465856],[-3.600618,40.465866],[-3.600605,40.465882],[-3.600593,40.465904],[-3.600582,40.465932],[-3.600567,40.465951],[-3.600555,40.465976],[-3.600546,40.465995],[-3.600546,40.466018],[-3.600559,40.466042],[-3.600582,40.466061],[-3.600612,40.466077],[-3.600645,40.466083],[-3.600679,40.46608],[-3.600708,40.466069],[-3.600724,40.466055],[-3.600736,40.46604],[-3.600731,40.466022],[-3.600723,40.465992],[-3.600716,40.465975],[-3.60071,40.465946],[-3.600709,40.465929],[-3.600712,40.465908],[-3.600711,40.465886],[-3.600699,40.465871],[-3.600678,40.465859]]]}},{"type":"Feature","properties":{"type":"tee","hole":13},"geometry":{"type":"Point","coordinates":[-3.601572,40.466177]}},{"type":"Feature","properties":{"type":"green","hole":13},"geometry":{"type":"Polygon","coordinates":[[[-3.600787,40.464826],[-3.600742,40.464833],[-3.600719,40.464847],[-3.600704,40.464863],[-3.600699,40.464892],[-3.6007,40.464913],[-3.600717,40.464945],[-3.60073,40.464976],[-3.600738,40.465008],[-3.600757,40.465037],[-3.600789,40.465066],[-3.600813,40.465076],[-3.600838,40.465077],[-3.600854,40.465073],[-3.600861,40.465062],[-3.600866,40.465041],[-3.600873,40.465022],[-3.600885,40.464999],[-3.600895,40.464977],[-3.600899,40.464956],[-3.600899,40.464934],[-3.600889,40.464907],[-3.600862,40.464884],[-3.600846,40.464871],[-3.600832,40.464855],[-3.600814,40.464839],[-3.600802,40.464831],[-3.600787,40.464826]]]}},{"type":"Feature","properties":{"type":"tee","hole":14},"geometry":{"type":"Point","coordinates":[-3.600193,40.465169]}},{"type":"Feature","properties":{"type":"green","hole":14},"geometry":{"type":"Polygon","coordinates":[[[-3.598431,40.461942],[-3.598396,40.461927],[-3.598357,40.461928],[-3.598332,40.461936],[-3.598314,40.461949],[-3.598304,40.461967],[-3.598302,40.461985],[-3.598305,40.462016],[-3.59831,40.462037],[-3.598307,40.462056],[-3.598298,40.462078],[-3.598297,40.462107],[-3.598313,40.462131],[-3.598329,40.462145],[-3.598362,40.462155],[-3.598392,40.462155],[-3.598429,40.462154],[-3.598462,40.462147],[-3.598485,40.462139],[-3.598504,40.462124],[-3.59852,40.462106],[-3.598526,40.462087],[-3.598529,40.462062],[-3.598524,40.462038],[-3.598512,40.462017],[-3.598498,40.461999],[-3.598476,40.461978],[-3.598456,40.46196],[-3.598431,40.461942]]]}},{"type":"Feature","properties":{"type":"tee","hole":15},"geometry":{"type":"Point","coordinates":[-3.597977,40.461964]}},{"type":"Feature","properties":{"type":"green","hole":15},"geometry":{"type":"Polygon","coordinates":[[[-3.598414,40.464412],[-3.598376,40.464413],[-3.598345,40.464419],[-3.598323,40.464439],[-3.598319,40.464459],[-3.598318,40.464481],[-3.598329,40.464506],[-3.598341,40.464538],[-3.598356,40.464564],[-3.598389,40.46458],[-3.59842,40.4646],[-3.598466,40.464605],[-3.598492,40.464597],[-3.598515,40.464585],[-3.598534,40.464565],[-3.598542,40.464536],[-3.59855,40.464508],[-3.598549,40.464485],[-3.598542,40.464457],[-3.598526,40.464434],[-3.598508,40.464419],[-3.598486,40.464409],[-3.598459,40.464406],[-3.598438,40.464408],[-3.598414,40.464412]]]}},{"type":"Feature","properties":{"type":"tee","hole":16},"geometry":{"type":"Point","coordinates":[-3.598684,40.463951]}},{"type":"Feature","properties":{"type":"green","hole":16},"geometry":{"type":"Polygon","coordinates":[[[-3.600425,40.466973],[-3.600384,40.466969],[-3.600338,40.466976],[-3.600321,40.466988],[-3.600307,40.467],[-3.600299,40.467019],[-3.600301,40.467043],[-3.600311,40.467066],[-3.600324,40.467083],[-3.600349,40.467094],[-3.600383,40.467112],[-3.600417,40.467123],[-3.60044,40.467135],[-3.600465,40.467149],[-3.600487,40.467149],[-3.600498,40.467145],[-3.600509,40.467135],[-3.600517,40.467113],[-3.600518,40.467089],[-3.600523,40.467066],[-3.600528,40.467047],[-3.60053,40.467026],[-3.60052,40.467008],[-3.600499,40.466991],[-3.600475,40.466981],[-3.600453,40.466978],[-3.600425,40.466973]]]}},{"type":"Feature","properties":{"type":"tee","hole":17},"geometry":{"type":"Point","coordinates":[-3.600945,40.46713]}},{"type":"Feature","properties":{"type":"green","hole":17},"geometry":{"type":"Polygon","coordinates":[[[-3.605903,40.46906],[-3.605862,40.469071],[-3.60584,40.469086],[-3.605822,40.469101],[-3.605796,40.469118],[-3.605769,40.46913],[-3.605751,40.469146],[-3.605741,40.46916],[-3.605741,40.469182],[-3.605742,40.469203],[-3.605757,40.469222],[-3.605776,40.469233],[-3.605801,40.469239],[-3.60583,40.46924],[-3.605856,40.469238],[-3.605877,40.469229],[-3.60589,40.469222],[-3.60591,40.469213],[-3.605926,40.469204],[-3.605945,40.469189],[-3.605957,40.469172],[-3.605963,40.469156],[-3.605966,40.469138],[-3.605969,40.469118],[-3.60597,40.469098],[-3.605959,40.469082],[-3.605941,40.469071],[-3.605925,40.469065],[-3.605903,40.46906]]]}},{"type":"Feature","properties":{"type":"tee","hole":18},"geometry":{"type":"Point","coordinates":[-3.605575,40.468555]}},{"type":"Feature","properties":{"type":"green","hole":18},"geometry":{"type":"Polygon","coordinates":[[[-3.608675,40.468341],[-3.608651,40.468325],[-3.608623,40.468319],[-3.608598,40.468323],[-3.608582,40.468333],[-3.608563,40.468347],[-3.608551,40.468369],[-3.608541,40.4684],[-3.608543,40.468438],[-3.608556,40.468464],[-3.608577,40.468482],[-3.608603,40.4685],[-3.60862,40.468513],[-3.608635,40.468521],[-3.608655,40.468525],[-3.608676,40.468524],[-3.608694,40.468516],[-3.608706,40.468502],[-3.608725,40.468488],[-3.608739,40.468464],[-3.608748,40.468436],[-3.608738,40.468407],[-3.608723,40.468386],[-3.608701,40.468364],[-3.608675,40.468341]]]}}]}